LANDSAT 9               
1 49260U 21088A   24144.79314009  .00000982  00000+0  22777-3 0  9994
2 49260  98.1877 214.8240 0001018  87.8672 272.2643 14.57124309141134
